[{"OBJECT_NAME":"GEESAT-3 09","OBJECT_ID":"2024-159J","EPOCH":"2026-03-09T19:20:24.519840","MEAN_MOTION":14.83818365,"ECCENTRICITY":0.00221767,"INCLINATION":49.996,"RA_OF_ASC_NODE":183.5508,"ARG_OF_PERICENTER":38.7487,"MEAN_ANOMALY":321.5038,"EPHEMERIS_TYPE":0,"CLASSIFICATION_TYPE":"U","NORAD_CAT_ID":61019,"ELEMENT_SET_NO":999,"REV_AT_EPOCH":8201,"BSTAR":0.00039687818,"MEAN_MOTION_DOT":3.108e-5,"MEAN_MOTION_DDOT":0},{"OBJECT_NAME":"BEE-1000","OBJECT_ID":"2025-274A","EPOCH":"2026-03-09T17:43:09.420672","MEAN_MOTION":14.92338483,"ECCENTRICITY":0.00111471,"INCLINATION":97.7438,"RA_OF_ASC_NODE":359.3923,"ARG_OF_PERICENTER":332.1906,"MEAN_ANOMALY":27.8715,"EPHEMERIS_TYPE":0,"CLASSIFICATION_TYPE":"U","NORAD_CAT_ID":66650,"ELEMENT_SET_NO":999,"REV_AT_EPOCH":1537,"BSTAR":0.00044877619,"MEAN_MOTION_DOT":4.538e-5,"MEAN_MOTION_DDOT":0}]
